[{"OBJECT_NAME":"STARLINK-31866","OBJECT_ID":"2024-084Q","EPOCH":"2026-03-09T22:03:58.531680","MEAN_MOTION":15.27567508,"ECCENTRICITY":0.00010335,"INCLINATION":42.9986,"RA_OF_ASC_NODE":33.0943,"ARG_OF_PERICENTER":225.7719,"MEAN_ANOMALY":134.3047,"EPHEMERIS_TYPE":0,"CLASSIFICATION_TYPE":"U","NORAD_CAT_ID":59668,"ELEMENT_SET_NO":999,"REV_AT_EPOCH":10449,"BSTAR":4.3681295e-5,"MEAN_MOTION_DOT":9.4e-6,"MEAN_MOTION_DDOT":0},{"OBJECT_NAME":"NUSAT-50 (NANCY ROMAN)","OBJECT_ID":"2024-149AB","EPOCH":"2026-03-09T19:15:16.765632","MEAN_MOTION":15.29713355,"ECCENTRICITY":0.00025229,"INCLINATION":97.3817,"RA_OF_ASC_NODE":150.7693,"ARG_OF_PERICENTER":238.0469,"MEAN_ANOMALY":122.0527,"EPHEMERIS_TYPE":0,"CLASSIFICATION_TYPE":"U","NORAD_CAT_ID":60493,"ELEMENT_SET_NO":999,"REV_AT_EPOCH":8693,"BSTAR":0.0004225155,"MEAN_MOTION_DOT":0.00012094,"MEAN_MOTION_DDOT":0}]
